OBJECT_NAME,OBJECT_ID,EPOCH,MEAN_MOTION,ECCENTRICITY,INCLINATION,RA_OF_ASC_NODE,ARG_OF_PERICENTER,MEAN_ANOMALY,EPHEMERIS_TYPE,CLASSIFICATION_TYPE,NORAD_CAT_ID,ELEMENT_SET_NO,REV_AT_EPOCH,BSTAR,MEAN_MOTION_DOT,MEAN_MOTION_DDOT
STARLINK-5856,2023-037A,2024-07-07T20:07:53.150304,14.98329432,.0002788,69.9998,42.2608,275.0384,85.0457,0,U,55914,999,7247,-.33545E-4,-.493E-5,0
STARLINK-5859,2023-037B,2024-07-08T00:32:14.299872,14.98336800,.0003049,69.9999,41.6972,271.6235,88.4574,0,U,55915,999,7250,.91038E-5,.16E-6,0
STARLINK-5796,2023-037C,2024-07-08T00:50:16.396800,14.98335614,.0002993,69.9998,41.7410,269.2153,90.8663,0,U,55916,999,7250,.88093E-4,.958E-5,0
STARLINK-5855,2023-037D,2024-07-07T20:46:43.977792,15.12679130,.0003457,69.9994,33.2188,219.3111,140.7805,0,U,55917,999,7270,.1108E-2,.19376E-3,0
STARLINK-5867,2023-037E,2024-07-08T00:44:15.745920,14.98334823,.0002956,70.0001,41.7281,268.7647,91.3173,0,U,55918,999,7250,.54143E-4,.553E-5,0
STARLINK-5871,2023-037F,2024-07-07T19:44:04.673184,14.98334110,.0002937,70.0001,42.2022,270.3302,89.7520,0,U,55919,999,7247,.39246E-4,.375E-5,0
STARLINK-5862,2023-037G,2024-07-07T19:49:31.744704,14.98333910,.0003091,70.0000,22.3351,271.4231,88.6573,0,U,55920,999,7296,.27765E-4,.238E-5,0
STARLINK-5861,2023-037H,2024-07-07T08:06:51.722496,14.98328692,.000319,69.9999,43.3206,268.7822,91.2972,0,U,55921,999,7206,-.29427E-4,-.444E-5,0
STARLINK-5863,2023-037J,2024-07-07T21:01:56.555328,14.98334811,.0003086,69.9996,41.9880,271.3495,88.7311,0,U,55922,999,7248,.61879E-4,.645E-5,0
STARLINK-5854,2023-037K,2024-07-08T00:20:13.176960,14.98337435,.000298,69.9998,41.6662,271.7595,88.3223,0,U,55923,999,7250,.76937E-4,.825E-5,0
STARLINK-5849,2023-037L,2024-07-07T22:55:47.054208,14.98334352,.000323,70.0003,21.9823,270.4715,89.6074,0,U,55924,999,7298,.24627E-4,.201E-5,0
STARLINK-5922,2023-037M,2024-07-07T20:49:55.333920,14.98326823,.0002932,69.9994,41.9572,267.8422,92.2401,0,U,55925,999,7248,.12556E-3,.1405E-4,0
STARLINK-5921,2023-037N,2024-07-07T21:07:37.847424,14.98333596,.000307,70.0003,22.1243,270.7617,89.3190,0,U,55926,999,7297,.33775E-4,.31E-5,0
STARLINK-5919,2023-037P,2024-07-07T20:38:08.473056,14.98330136,.0003005,69.9999,41.9298,268.2038,91.8776,0,U,55927,999,7248,.66215E-4,.697E-5,0
STARLINK-5930,2023-037Q,2024-07-07T07:42:49.157856,14.98336702,.0002902,70.0003,43.2610,269.7179,90.3647,0,U,55928,999,7206,-.2301E-4,-.368E-5,0
STARLINK-5898,2023-037R,2024-07-07T20:37:54.166080,14.98330731,.000312,69.9999,41.9287,268.7214,91.3588,0,U,55929,999,7248,.48353E-4,.484E-5,0
STARLINK-5896,2023-037S,2024-07-07T20:25:33.397536,14.98332219,.000291,70.0005,22.0246,268.1705,91.9121,0,U,55930,999,7297,-.17689E-4,-.304E-5,0
STARLINK-5897,2023-037T,2024-07-07T20:25:52.910112,14.98328930,.000301,70.0000,41.8996,269.3303,90.7511,0,U,55931,999,7248,-.16676E-4,-.292E-5,0
STARLINK-5848,2023-037U,2024-07-07T13:00:35.330112,14.98330028,.0003151,70.0009,2.6676,267.8044,92.2754,0,U,55932,999,7308,.30126E-5,-.57E-6,0
STARLINK-5852,2023-037V,2024-07-07T13:00:57.226464,14.98329705,.0002952,70.0006,22.9538,271.0202,89.0618,0,U,55933,999,7258,.17261E-4,.113E-5,0
STARLINK-5927,2023-037W,2024-07-07T20:25:47.606880,14.98332110,.0002994,70.0005,22.0208,268.7831,91.2985,0,U,55934,999,7297,-.4562E-4,-.637E-5,0
STARLINK-5920,2023-037X,2024-07-07T22:31:44.664096,14.98331283,.0003093,70.0003,21.9260,269.6775,90.4029,0,U,55935,999,7298,.31484E-4,.283E-5,0
STARLINK-5882,2023-037Y,2024-07-07T13:06:36.133920,14.98327868,.000286,70.0008,2.6833,266.8173,93.2659,0,U,55936,999,7308,-.14592E-4,-.267E-5,0
