STARLINK-5856           
1 55914U 23037A   24189.83880961 -.00000493  00000+0 -33545-4 0  9997
2 55914  69.9998  42.2608 0002788 275.0384  85.0457 14.98329432 72476
STARLINK-5859           
1 55915U 23037B   24190.02238773  .00000016  00000+0  91038-5 0  9990
2 55915  69.9999  41.6972 0003049 271.6235  88.4574 14.98336800 72501
STARLINK-5796           
1 55916U 23037C   24190.03491200  .00000958  00000+0  88093-4 0  9999
2 55916  69.9998  41.7410 0002993 269.2153  90.8663 14.98335614 72506
STARLINK-5855           
1 55917U 23037D   24189.86578678  .00019376  00000+0  11080-2 0  9998
2 55917  69.9994  33.2188 0003457 219.3111 140.7805 15.12679130 72703
STARLINK-5867           
1 55918U 23037E   24190.03073780  .00000553  00000+0  54143-4 0  9990
2 55918  70.0001  41.7281 0002956 268.7647  91.3173 14.98334823 72506
STARLINK-5871           
1 55919U 23037F   24189.82227631  .00000375  00000+0  39246-4 0  9991
2 55919  70.0001  42.2022 0002937 270.3302  89.7520 14.98334110 72474
STARLINK-5862           
1 55920U 23037G   24189.82606186  .00000238  00000+0  27765-4 0  9990
2 55920  70.0000  22.3351 0003091 271.4231  88.6573 14.98333910 72961
STARLINK-5861           
1 55921U 23037H   24189.33809864 -.00000444  00000+0 -29427-4 0  9993
2 55921  69.9999  43.3206 0003190 268.7822  91.2972 14.98328692 72068
STARLINK-5863           
1 55922U 23037J   24189.87634902  .00000645  00000+0  61879-4 0  9990
2 55922  69.9996  41.9880 0003086 271.3495  88.7311 14.98334811 72482
STARLINK-5854           
1 55923U 23037K   24190.01404140  .00000825  00000+0  76937-4 0  9999
2 55923  69.9998  41.6662 0002980 271.7595  88.3223 14.98337435 72503
STARLINK-5849           
1 55924U 23037L   24189.95540572  .00000201  00000+0  24627-4 0  9998
2 55924  70.0003  21.9823 0003230 270.4715  89.6074 14.98334352 72988
STARLINK-5922           
1 55925U 23037M   24189.86800155  .00001405  00000+0  12556-3 0  9999
2 55925  69.9994  41.9572 0002932 267.8422  92.2401 14.98326823 72484
STARLINK-5921           
1 55926U 23037N   24189.88029916  .00000310  00000+0  33775-4 0  9991
2 55926  70.0003  22.1243 0003070 270.7617  89.3190 14.98333596 72979
STARLINK-5919           
1 55927U 23037P   24189.85982029  .00000697  00000+0  66215-4 0  9995
2 55927  69.9999  41.9298 0003005 268.2038  91.8776 14.98330136 72488
STARLINK-5930           
1 55928U 23037Q   24189.32140229 -.00000368  00000+0 -23010-4 0  9999
2 55928  70.0003  43.2610 0002902 269.7179  90.3647 14.98336702 72068
STARLINK-5898           
1 55929U 23037R   24189.85965470  .00000484  00000+0  48353-4 0  9995
2 55929  69.9999  41.9287 0003120 268.7214  91.3588 14.98330731 72484
STARLINK-5896           
1 55930U 23037S   24189.85108099 -.00000304  00000+0 -17689-4 0  9994
2 55930  70.0005  22.0246 0002910 268.1705  91.9121 14.98332219 72973
STARLINK-5897           
1 55931U 23037T   24189.85130683 -.00000292  00000+0 -16676-4 0  9990
2 55931  70.0000  41.8996 0003010 269.3303  90.7511 14.98328930 72480
STARLINK-5848           
1 55932U 23037U   24189.54207558 -.00000057  00000+0  30126-5 0  9998
2 55932  70.0009   2.6676 0003151 267.8044  92.2754 14.98330028 73085
STARLINK-5852           
1 55933U 23037V   24189.54232901  .00000113  00000+0  17261-4 0  9995
2 55933  70.0006  22.9538 0002952 271.0202  89.0618 14.98329705 72583
STARLINK-5927           
1 55934U 23037W   24189.85124545 -.00000637  00000+0 -45620-4 0  9997
2 55934  70.0005  22.0208 0002994 268.7831  91.2985 14.98332110 72974
STARLINK-5920           
1 55935U 23037X   24189.93871139  .00000283  00000+0  31484-4 0  9993
2 55935  70.0003  21.9260 0003093 269.6775  90.4029 14.98331283 72988
STARLINK-5882           
1 55936U 23037Y   24189.54625155 -.00000267  00000+0 -14592-4 0  9991
2 55936  70.0008   2.6833 0002860 266.8173  93.2659 14.98327868 73084
